{
    "links": {
        "self": "http://www.neowsapp.com/rest/v1/neo/3856711?api_key=iIulBulltgU6a56xZRHN4H3l9WmuAYTsLGpBGhQ2"
    },
    "id": "3856711",
    "neo_reference_id": "3856711",
    "name": "(2019 SJ4)",
    "designation": "2019 SJ4",
    "nasa_jpl_url": "http://ssd.jpl.nasa.gov/sbdb.cgi?sstr=3856711",
    "absolute_magnitude_h": 25.6,
    "estimated_diameter": {
        "kilometers": {
            "estimated_diameter_min": 0.0201629919,
            "estimated_diameter_max": 0.0450858206
        },
        "meters": {
            "estimated_diameter_min": 20.1629919443,
            "estimated_diameter_max": 45.0858206172
        },
        "miles": {
            "estimated_diameter_min": 0.0125286985,
            "estimated_diameter_max": 0.0280150214
        },
        "feet": {
            "estimated_diameter_min": 66.1515504905,
            "estimated_diameter_max": 147.9193637137
        }
    },
    "is_potentially_hazardous_asteroid": false,
    "close_approach_data": [
        {
            "close_approach_date": "2019-09-17",
            "close_approach_date_full": "2019-Sep-17 06:34",
            "epoch_date_close_approach": 1568702040000,
            "relative_velocity": {
                "kilometers_per_second": "13.5817688969",
                "kilometers_per_hour": "48894.3680287421",
                "miles_per_hour": "30381.0588454148"
            },
            "miss_distance": {
                "astronomical": "0.0173463306",
                "lunar": "6.7477226034",
                "kilometers": "2594974.110075822",
                "miles": "1612442.1420654636"
            },
            "orbiting_body": "Earth"
        }
    ],
    "orbital_data": {
        "orbit_id": "1",
        "orbit_determination_date": "2019-09-26 23:12:08",
        "first_observation_date": "2019-09-25",
        "last_observation_date": "2019-09-26",
        "data_arc_in_days": 1,
        "observations_used": 14,
        "orbit_uncertainty": "9",
        "minimum_orbit_intersection": ".00228488",
        "jupiter_tisserand_invariant": "4.003",
        "epoch_osculation": "2458752.5",
        "eccentricity": ".527227461085939",
        "semi_major_axis": "1.714633878124291",
        "inclination": "6.812018740952485",
        "ascending_node_longitude": "174.2871517907038",
        "orbital_period": "820.0786912284796",
        "perihelion_distance": ".8106318118688836",
        "perihelion_argument": "117.2615921274374",
        "aphelion_distance": "2.618635944379698",
        "perihelion_time": "2458699.827780259933",
        "mean_anomaly": "23.12217023712567",
        "mean_motion": ".4389822633492881",
        "equinox": "J2000",
        "orbit_class": {
            "orbit_class_type": "APO",
            "orbit_class_description": "Near-Earth asteroid orbits which cross the Earth’s orbit similar to that of 1862 Apollo",
            "orbit_class_range": "a (semi-major axis) > 1.0 AU; q (perihelion) < 1.017 AU"
        }
    },
    "is_sentry_object": false
}